ONEWEB-0066             
1 45424U 20020A   23265.42018983  .00000160  00000+0  41662-3 0  9994
2 45424  87.8957 219.4578 0002501  77.2774 282.8633 13.11415848171774
ONEWEB-0067             
1 45425U 20020B   23265.36825065 -.00000535  00000+0 -15462-2 0  9991
2 45425  87.8952 219.4433 0002056  88.6785 271.4579 13.11417356171828
ONEWEB-0080             
1 45426U 20020C   23265.39476054  .00000484  00000+0  13289-2 0  9991
2 45426  87.8958 219.4657 0002433  74.9608 285.1789 13.11418925171798
ONEWEB-0090             
1 45427U 20020D   23265.41067484  .00000530  00000+0  14591-2 0  9997
2 45427  87.8953 219.4424 0002247  74.9388 285.1988 13.11416407171765
ONEWEB-0061             
1 45428U 20020E   23265.36718382 -.00003065  00000+0 -86865-2 0  9993
2 45428  87.8956 219.4519 0002125  81.5892 278.5476 13.11428902171719
ONEWEB-0081             
1 45429U 20020F   23265.42442485  .00000044  00000+0  88062-4 0  9994
2 45429  87.8954 219.4597 0002218  82.4747 277.6633 13.11415603171838
ONEWEB-0069             
1 45430U 20020G   23265.41383896  .00000407  00000+0  11113-2 0  9999
2 45430  87.8951 219.4545 0002188  74.7836 285.3534 13.11415176171762
ONEWEB-0031             
1 45431U 20020H   23265.38627898  .00000146  00000+0  37577-3 0  9992
2 45431  87.8956 219.4537 0001823  80.5150 279.6183 13.11419272171743
